CSS (TIANHE)            
1 48274U 21035A   24261.23123347  .00056442  00000+0  57531-3 0  9990
2 48274  41.4674 241.9067 0002581 169.7447 190.3446 15.64214481193495
